STARLINK-31587          
1 59570U 24076G   26067.85851255  .00002422  00000+0  97556-4 0  9990
2 59570  43.0037  13.8613 0001636 266.6818  93.3846 15.27566597106395
NUSAT-48 (HENRIETTA LE*)
1 60498U 24149AG  26068.80506098  .00012988  00000+0  45212-3 0  9999
2 60498  97.3923 150.8264 0002754 263.3026  96.7901 15.29812597 86946
